GLOBALSTAR M001 [-]     
1 25162U 98008A   23278.60672821 -.00000125  00000+0 -21715-3 0  9993
2 25162  52.0056 339.4053 0001642  38.7836 127.0205 12.38167840166944
GLOBALSTAR M004 [-]     
1 25163U 98008B   23279.07043264 -.00000070  00000+0  18850-3 0  9993
2 25163  51.9975 145.8996 0003291   8.4407 144.4915 12.63339162183405
GLOBALSTAR M002 [-]     
1 25164U 98008C   23278.51594837 -.00000088  00000+0 -22315-3 0  9990
2 25164  52.0046 356.4144 0001772  93.9792 266.1231 11.61495213112019
GLOBALSTAR M003 [-]     
1 25165U 98008D   23278.80002675  .00000033  00000+0  13061-2 0  9992
2 25165  51.9740  86.8694 0008619 122.6581 342.9538 12.11941976157993
GLOBALSTAR M014 [-]     
1 25306U 98023A   23279.22158544 -.00000043  00000+0  64471-3 0  9994
2 25306  51.9830 290.9023 0000749 315.9440 125.7184 11.65460542118872
GLOBALSTAR M006 [-]     
1 25307U 98023B   23279.09526310 -.00000057  00000+0  37514-3 0  9993
2 25307  51.9952 320.5201 0003744  76.4065 297.3660 11.58154224145094
GLOBALSTAR M015 [-]     
1 25308U 98023C   23278.62056606  .00000017  00000+0  20667-2 0  9993
2 25308  51.9852  31.7365 0012915  55.8446  43.7871 11.48851535123125
GLOBALSTAR M008 [-]     
1 25309U 98023D   23278.92418365 -.00000040  00000+0  44216-3 0  9995
2 25309  51.9962 196.2892 0002386 323.0591 113.2756 12.36029323161141
